OBJECT_NAME,OBJECT_ID,EPOCH,MEAN_MOTION,ECCENTRICITY,INCLINATION,RA_OF_ASC_NODE,ARG_OF_PERICENTER,MEAN_ANOMALY,EPHEMERIS_TYPE,CLASSIFICATION_TYPE,NORAD_CAT_ID,ELEMENT_SET_NO,REV_AT_EPOCH,BSTAR,MEAN_MOTION_DOT,MEAN_MOTION_DDOT
ONEWEB-0399,2021-132L,2026-06-15T12:27:25.035264,13.11414425,.0002153,87.8894,21.4007,75.1674,284.9692,0,U,50479,999,21538,.11924E-2,.435E-5,0
ONEWEB-0400,2021-132M,2026-06-15T11:47:20.982048,13.18686111,.0001924,87.9170,335.7818,97.6893,262.4458,0,U,50480,999,22138,.21194E-3,.96E-6,0
ONEWEB-0401,2021-132N,2026-06-15T11:03:38.378304,13.18685354,.0001635,87.9171,335.7851,87.7264,272.4055,0,U,50481,999,22138,-.70912E-5,.1E-6,0
ONEWEB-0402,2021-132P,2026-06-15T11:59:29.952672,13.18685965,.0001551,87.9167,335.7667,79.5727,280.5580,0,U,50482,999,22141,.67613E-4,.4E-6,0
ONEWEB-0403,2021-132Q,2026-06-15T12:35:54.296736,13.18685310,.000199,87.9168,335.7859,90.3201,269.8159,0,U,50483,999,22137,.43389E-4,.3E-6,0
ONEWEB-0404,2021-132R,2026-06-15T12:00:33.726240,13.11418307,.0002147,87.8890,21.4030,83.3286,276.8086,0,U,50484,999,21547,.11873E-2,.434E-5,0
ONEWEB-0405,2021-132S,2026-06-15T12:55:20.325216,13.18686863,.0001999,87.9173,335.7678,105.5677,254.5676,0,U,50485,999,22177,-.24508E-4,.3E-7,0
ONEWEB-0406,2021-132T,2026-06-15T10:53:55.764096,13.18685414,.0002344,87.9165,335.8011,86.4840,273.6561,0,U,50486,999,22139,.13413E-3,.66E-6,0
ONEWEB-0407,2021-132U,2026-06-15T12:33:30.566016,13.18675293,.0001568,87.9169,335.7792,95.6750,264.4560,0,U,50487,999,22134,-.24547E-2,-.955E-5,0
ONEWEB-0409,2021-132V,2026-06-15T08:18:22.352256,13.11419513,.0002117,87.8894,21.4218,86.4510,273.6860,0,U,50488,999,21534,.11172E-2,.409E-5,0
ONEWEB-0412,2021-132W,2026-06-15T12:16:28.704576,13.18685147,.0001643,87.9166,335.7902,84.3979,275.7340,0,U,50489,999,22143,-.12218E-4,.8E-7,0
ONEWEB-0413,2021-132X,2026-06-15T12:23:47.431680,13.18676016,.0001542,87.9157,335.7881,89.7176,270.4133,0,U,50490,999,22137,.48902E-2,.1941E-4,0
ONEWEB-0414,2021-132Y,2026-06-15T12:01:55.130592,13.18685473,.0001837,87.9170,335.7726,86.4491,273.6851,0,U,50491,999,22140,.43086E-5,.15E-6,0
ONEWEB-0417,2021-132Z,2026-06-15T12:14:03.353856,13.18685806,.0002088,87.9160,335.7908,90.7847,269.3525,0,U,50492,999,22138,.15878E-3,.76E-6,0
ONEWEB-0418,2021-132AA,2026-06-15T12:28:24.436992,13.18689663,.0002089,87.9171,335.7883,86.1025,274.0346,0,U,50493,999,22144,-.17242E-2,-.667E-5,0
ONEWEB-0419,2021-132AB,2026-06-15T12:55:10.248384,13.18666132,.0002104,87.9170,335.7841,96.7917,263.3454,0,U,50494,999,22136,.96667E-5,.17E-6,0
ONEWEB-0420,2021-132AC,2026-06-15T12:04:20.419968,13.18685776,.0001675,87.9160,335.7943,95.5002,264.6321,0,U,50495,999,22135,.14895E-3,.72E-6,0
ONEWEB-0421,2021-132AD,2026-06-15T11:54:37.689120,13.18685295,.0001817,87.9165,335.7931,80.7193,279.4144,0,U,50496,999,22139,.1378E-3,.67E-6,0
ONEWEB-0424,2021-132AE,2026-06-15T10:58:47.231040,13.18685125,.0002049,87.9168,335.7988,100.6716,259.4647,0,U,50497,999,22141,.95654E-5,.17E-6,0
ONEWEB-0426,2021-132AF,2026-06-15T11:48:32.772672,13.18688857,.0002299,87.9169,335.7828,77.4653,282.6737,0,U,50498,999,22136,.75022E-4,.42E-6,0
ONEWEB-0427,2021-132AG,2026-06-15T12:45:37.318752,13.18685213,.000204,87.9172,335.7640,89.8134,270.3232,0,U,50499,999,22139,-.11107E-3,-.31E-6,0
ONEWEB-0429,2021-132AH,2026-06-15T12:26:11.774112,13.18685890,.0001722,87.9162,335.7912,93.5828,266.5501,0,U,50500,999,22136,.16718E-3,.79E-6,0
ONEWEB-0430,2021-132AJ,2026-06-15T12:09:11.761632,13.18686139,.0001787,87.9163,335.7919,100.6714,259.4619,0,U,50501,999,22140,-.1171E-3,-.33E-6,0
ONEWEB-0432,2021-132AK,2026-06-15T11:19:24.862656,13.17155017,.0002134,87.9169,335.7755,108.9041,251.2322,0,U,50502,999,22135,.11092E-3,.56E-6,0
ONEWEB-0440,2021-132AL,2026-06-15T12:38:19.948128,13.18685516,.0001577,87.9170,335.7838,85.2751,274.8561,0,U,50503,999,22135,.72135E-4,.41E-6,0
ONEWEB-0450,2021-132AM,2026-06-15T12:28:49.738368,13.18685637,.0001669,87.9159,335.7905,96.2025,263.9297,0,U,50504,999,22138,-.12447E-3,-.36E-6,0
ONEWEB-0410,2022-012A,2026-06-15T13:07:13.492416,13.17648787,.0003064,87.9145,6.1832,75.1950,284.9521,0,U,51622,999,21348,.14758E-3,.7E-6,0
ONEWEB-0411,2022-012B,2026-06-15T07:59:42.978912,13.10370181,.000167,87.8838,36.6359,100.9605,259.1710,0,U,51623,999,20904,.10646E-2,.384E-5,0
ONEWEB-0415,2022-012C,2026-06-15T07:54:56.695104,13.10370645,.0001819,87.8835,36.6356,90.8475,269.2861,0,U,51624,999,20904,.14944E-2,.534E-5,0
ONEWEB-0416,2022-012D,2026-06-15T08:11:40.166304,13.10370212,.0002064,87.8828,36.6513,94.3026,265.8337,0,U,51625,999,20908,.11377E-3,.52E-6,0
ONEWEB-0422,2022-012E,2026-06-15T11:32:27.754656,13.17649541,.0001218,87.9142,6.1976,84.8002,275.3268,0,U,51626,999,21358,.10556E-3,.54E-6,0
