[
  {
    "name": "ONEWEB-0399",
    "noradId": "50479",
    "line1": "1 50479U 21132L   26166.51903976  .00000435  00000+0  11924-2 0  9995",
    "line2": "2 50479  87.8894  21.4007 0002153  75.1674 284.9692 13.11414425215381"
  },
  {
    "name": "ONEWEB-0400",
    "noradId": "50480",
    "line1": "1 50480U 21132M   26166.49121507  .00000096  00000+0  21194-3 0  9990",
    "line2": "2 50480  87.9170 335.7818 0001924  97.6893 262.4458 13.18686111221387"
  },
  {
    "name": "ONEWEB-0401",
    "noradId": "50481",
    "line1": "1 50481U 21132N   26166.46086086  .00000010  00000+0 -70912-5 0  9991",
    "line2": "2 50481  87.9171 335.7851 0001635  87.7264 272.4055 13.18685354221389"
  },
  {
    "name": "ONEWEB-0402",
    "noradId": "50482",
    "line1": "1 50482U 21132P   26166.49965223  .00000040  00000+0  67613-4 0  9999",
    "line2": "2 50482  87.9167 335.7667 0001551  79.5727 280.5580 13.18685965221415"
  },
  {
    "name": "ONEWEB-0403",
    "noradId": "50483",
    "line1": "1 50483U 21132Q   26166.52493399  .00000030  00000+0  43389-4 0  9997",
    "line2": "2 50483  87.9168 335.7859 0001990  90.3201 269.8159 13.18685310221376"
  },
  {
    "name": "ONEWEB-0404",
    "noradId": "50484",
    "line1": "1 50484U 21132R   26166.50039035  .00000434  00000+0  11873-2 0  9998",
    "line2": "2 50484  87.8890  21.4030 0002147  83.3286 276.8086 13.11418307215472"
  },
  {
    "name": "ONEWEB-0405",
    "noradId": "50485",
    "line1": "1 50485U 21132S   26166.53842969  .00000003  00000+0 -24508-4 0  9994",
    "line2": "2 50485  87.9173 335.7678 0001999 105.5677 254.5676 13.18686863221771"
  },
  {
    "name": "ONEWEB-0406",
    "noradId": "50486",
    "line1": "1 50486U 21132T   26166.45411764  .00000066  00000+0  13413-3 0  9991",
    "line2": "2 50486  87.9165 335.8011 0002344  86.4840 273.6561 13.18685414221393"
  },
  {
    "name": "ONEWEB-0407",
    "noradId": "50487",
    "line1": "1 50487U 21132U   26166.52327044 -.00000955  00000+0 -24547-2 0  9995",
    "line2": "2 50487  87.9169 335.7792 0001568  95.6750 264.4560 13.18675293221348"
  },
  {
    "name": "ONEWEB-0409",
    "noradId": "50488",
    "line1": "1 50488U 21132V   26166.34609204  .00000409  00000+0  11172-2 0  9999",
    "line2": "2 50488  87.8894  21.4218 0002117  86.4510 273.6860 13.11419513215340"
  },
  {
    "name": "ONEWEB-0412",
    "noradId": "50489",
    "line1": "1 50489U 21132W   26166.51144334  .00000008  00000+0 -12218-4 0  9997",
    "line2": "2 50489  87.9166 335.7902 0001643  84.3979 275.7340 13.18685147221432"
  },
  {
    "name": "ONEWEB-0413",
    "noradId": "50490",
    "line1": "1 50490U 21132X   26166.51652120  .00001941  00000+0  48902-2 0  9999",
    "line2": "2 50490  87.9157 335.7881 0001542  89.7176 270.4133 13.18676016221376"
  },
  {
    "name": "ONEWEB-0414",
    "noradId": "50491",
    "line1": "1 50491U 21132Y   26166.50133253  .00000015  00000+0  43086-5 0  9992",
    "line2": "2 50491  87.9170 335.7726 0001837  86.4491 273.6851 13.18685473221404"
  },
  {
    "name": "ONEWEB-0417",
    "noradId": "50492",
    "line1": "1 50492U 21132Z   26166.50976104  .00000076  00000+0  15878-3 0  9996",
    "line2": "2 50492  87.9160 335.7908 0002088  90.7847 269.3525 13.18685806221385"
  },
  {
    "name": "ONEWEB-0418",
    "noradId": "50493",
    "line1": "1 50493U 21132AA  26166.51972728 -.00000667  00000+0 -17242-2 0  9990",
    "line2": "2 50493  87.9171 335.7883 0002089  86.1025 274.0346 13.18689663221444"
  },
  {
    "name": "ONEWEB-0419",
    "noradId": "50494",
    "line1": "1 50494U 21132AB  26166.53831306  .00000017  00000+0  96667-5 0  9997",
    "line2": "2 50494  87.9170 335.7841 0002104  96.7917 263.3454 13.18666132221361"
  },
  {
    "name": "ONEWEB-0420",
    "noradId": "50495",
    "line1": "1 50495U 21132AC  26166.50301412  .00000072  00000+0  14895-3 0  9997",
    "line2": "2 50495  87.9160 335.7943 0001675  95.5002 264.6321 13.18685776221359"
  },
  {
    "name": "ONEWEB-0421",
    "noradId": "50496",
    "line1": "1 50496U 21132AD  26166.49626955  .00000067  00000+0  13780-3 0  9994",
    "line2": "2 50496  87.9165 335.7931 0001817  80.7193 279.4144 13.18685295221394"
  },
  {
    "name": "ONEWEB-0424",
    "noradId": "50497",
    "line1": "1 50497U 21132AE  26166.45749110  .00000017  00000+0  95654-5 0  9997",
    "line2": "2 50497  87.9168 335.7988 0002049 100.6716 259.4647 13.18685125221412"
  },
  {
    "name": "ONEWEB-0426",
    "noradId": "50498",
    "line1": "1 50498U 21132AF  26166.49204598  .00000042  00000+0  75022-4 0  9992",
    "line2": "2 50498  87.9169 335.7828 0002299  77.4653 282.6737 13.18688857221362"
  },
  {
    "name": "ONEWEB-0427",
    "noradId": "50499",
    "line1": "1 50499U 21132AG  26166.53168193 -.00000031  00000+0 -11107-3 0  9991",
    "line2": "2 50499  87.9172 335.7640 0002040  89.8134 270.3232 13.18685213221394"
  },
  {
    "name": "ONEWEB-0429",
    "noradId": "50500",
    "line1": "1 50500U 21132AH  26166.51819183  .00000079  00000+0  16718-3 0  9997",
    "line2": "2 50500  87.9162 335.7912 0001722  93.5828 266.5501 13.18685890221360"
  },
  {
    "name": "ONEWEB-0430",
    "noradId": "50501",
    "line1": "1 50501U 21132AJ  26166.50638613 -.00000033  00000+0 -11710-3 0  9993",
    "line2": "2 50501  87.9163 335.7919 0001787 100.6714 259.4619 13.18686139221407"
  },
  {
    "name": "ONEWEB-0432",
    "noradId": "50502",
    "line1": "1 50502U 21132AK  26166.47181554  .00000056  00000+0  11092-3 0  9993",
    "line2": "2 50502  87.9169 335.7755 0002134 108.9041 251.2322 13.17155017221353"
  },
  {
    "name": "ONEWEB-0440",
    "noradId": "50503",
    "line1": "1 50503U 21132AL  26166.52661977  .00000041  00000+0  72135-4 0  9992",
    "line2": "2 50503  87.9170 335.7838 0001577  85.2751 274.8561 13.18685516221352"
  },
  {
    "name": "ONEWEB-0450",
    "noradId": "50504",
    "line1": "1 50504U 21132AM  26166.52002012 -.00000036  00000+0 -12447-3 0  9997",
    "line2": "2 50504  87.9159 335.7905 0001669  96.2025 263.9297 13.18685637221385"
  },
  {
    "name": "ONEWEB-0410",
    "noradId": "51622",
    "line1": "1 51622U 22012A   26166.54668394  .00000070  00000+0  14758-3 0  9993",
    "line2": "2 51622  87.9145   6.1832 0003064  75.1950 284.9521 13.17648787213483"
  },
  {
    "name": "ONEWEB-0411",
    "noradId": "51623",
    "line1": "1 51623U 22012B   26166.33313633  .00000384  00000+0  10646-2 0  9993",
    "line2": "2 51623  87.8838  36.6359 0001670 100.9605 259.1710 13.10370181209043"
  },
  {
    "name": "ONEWEB-0415",
    "noradId": "51624",
    "line1": "1 51624U 22012C   26166.32982286  .00000534  00000+0  14944-2 0  9991",
    "line2": "2 51624  87.8835  36.6356 0001819  90.8475 269.2861 13.10370645209049"
  },
  {
    "name": "ONEWEB-0416",
    "noradId": "51625",
    "line1": "1 51625U 22012D   26166.34143711  .00000052  00000+0  11377-3 0  9999",
    "line2": "2 51625  87.8828  36.6513 0002064  94.3026 265.8337 13.10370212209085"
  },
  {
    "name": "ONEWEB-0422",
    "noradId": "51626",
    "line1": "1 51626U 22012E   26166.48087679  .00000054  00000+0  10556-3 0  9995",
    "line2": "2 51626  87.9142   6.1976 0001218  84.8002 275.3268 13.17649541213589"
  }
]